{"type": "FeatureCollection", "features": [ {"type": "Feature", "properties": {"norad_id": 66537, "name": "STARLINK-35582", "group": "last-30-days", "lat": -27.629538265829325, "lon": 1.8920064477490994, "alt_km": 415.58405880845567, "timestamp": "2025-12-15T19:00:44.076321+00:00", "meta": {"OBJECT_NAME": "STARLINK-35582", "OBJECT_ID": "2025-265X", "EPOCH": "2025-12-14T10:44:05.213184", "MEAN_MOTION": 15.50613365, "ECCENTRICITY": 0.00021144, "INCLINATION": 43.0022, "RA_OF_ASC_NODE": 43.9345, "ARG_OF_PERICENTER": 270.0034, "MEAN_ANOMALY": 90.0584, "EPHEMERIS_TYPE": 0, "CLASSIFICATION_TYPE": "U", "NORAD_CAT_ID": 66537, "ELEMENT_SET_NO": 999, "REV_AT_EPOCH": 402, "BSTAR": 0.0016952954, "MEAN_MOTION_DOT": 0.00100525, "MEAN_MOTION_DDOT": 0}, "tle": {"line1": "1 66537U 25265X   25348.44728256  .00100525  00000+0  16953-2 0  9995", "line2": "2 66537  43.0022  43.9345 0002114 270.0034  90.0584 15.50613365  4029"}}, "geometry": {"type": "Point", "coordinates": [1.8920064477490994, -27.629538265829325]}}, {"type": "Feature", "properties": {"norad_id": 66538, "name": "STARLINK-35577", "group": "last-30-days", "lat": -26.588712392892692, "lon": 3.5722254878169784, "alt_km": 416.14335286393907, "timestamp": "2025-12-15T19:00:44.076331+00:00", "meta": {"OBJECT_NAME": "STARLINK-35577", "OBJECT_ID": "2025-265Y", "EPOCH": "2025-12-14T10:43:35.342976", "MEAN_MOTION": 15.50606773, "ECCENTRICITY": 0.00012396, "INCLINATION": 43.0005, "RA_OF_ASC_NODE": 43.9317, "ARG_OF_PERICENTER": 265.8062, "MEAN_ANOMALY": 94.2656, "EPHEMERIS_TYPE": 0, "CLASSIFICATION_TYPE": "U", "NORAD_CAT_ID": 66538, "ELEMENT_SET_NO": 999, "REV_AT_EPOCH": 402, "BSTAR": 0.0014913548, "MEAN_MOTION_DOT": 0.00088228, "MEAN_MOTION_DDOT": 0}, "tle": {"line1": "1 66538U 25265Y   25348.44693684  .00088228  00000+0  14914-2 0  9992", "line2": "2 66538  43.0005  43.9317 0001239 265.8062  94.2656 15.50606773  4021"}}, "geometry": {"type": "Point", "coordinates": [3.5722254878169784, -26.588712392892692]}}, {"type": "Feature", "properties": {"norad_id": 66539, "name": "STARLINK-35697", "group": "last-30-days", "lat": -25.537802626503353, "lon": 5.209384160216887, "alt_km": 415.70434466714687, "timestamp": "2025-12-15T19:00:44.076341+00:00", "meta": {"OBJECT_NAME": "STARLINK-35697", "OBJECT_ID": "2025-265Z", "EPOCH": "2025-12-14T10:43:06.045600", "MEAN_MOTION": 15.50602705, "ECCENTRICITY": 0.00018669, "INCLINATION": 43.0006, "RA_OF_ASC_NODE": 43.9284, "ARG_OF_PERICENTER": 277.9467, "MEAN_ANOMALY": 82.1181, "EPHEMERIS_TYPE": 0, "CLASSIFICATION_TYPE": "U", "NORAD_CAT_ID": 66539, "ELEMENT_SET_NO": 999, "REV_AT_EPOCH": 402, "BSTAR": 0.0013416759, "MEAN_MOTION_DOT": 0.00079237, "MEAN_MOTION_DDOT": 0}, "tle": {"line1": "1 66539U 25265Z   25348.44659775  .00079237  00000+0  13417-2 0  9993", "line2": "2 66539  43.0006  43.9284 0001866 277.9467  82.1181 15.50602705  4025"}}, "geometry": {"type": "Point", "coordinates": [5.209384160216887, -25.537802626503353]}}, {"type": "Feature", "properties": {"norad_id": 66540, "name": "STARLINK-35818", "group": "last-30-days", "lat": -24.36161586559962, "lon": 6.975967327334, "alt_km": 415.52727101601886, "timestamp": "2025-12-15T19:00:44.076351+00:00", "meta": {"OBJECT_NAME": "STARLINK-35818", "OBJECT_ID": "2025-265AA", "EPOCH": "2025-12-14T10:42:36.050976", "MEAN_MOTION": 15.5061211, "ECCENTRICITY": 0.00021246, "INCLINATION": 43.0006, "RA_OF_ASC_NODE": 43.9248, "ARG_OF_PERICENTER": 273.7658, "MEAN_ANOMALY": 86.296, "EPHEMERIS_TYPE": 0, "CLASSIFICATION_TYPE": "U", "NORAD_CAT_ID": 66540, "ELEMENT_SET_NO": 999, "REV_AT_EPOCH": 402, "BSTAR": 0.0013575355, "MEAN_MOTION_DOT": 0.00080216, "MEAN_MOTION_DDOT": 0}, "tle": {"line1": "1 66540U 25265AA  25348.44625059  .00080216  00000+0  13575-2 0  9997", "line2": "2 66540  43.0006  43.9248 0002124 273.7658  86.2960 15.50612110  4022"}}, "geometry": {"type": "Point", "coordinates": [6.975967327334, -24.36161586559962]}}, {"type": "Feature", "properties": {"norad_id": 66541, "name": "STARLINK-35796", "group": "last-30-days", "lat": -40.62011099204066, "lon": -76.79146318912287, "alt_km": 446.7743111251939, "timestamp": "2025-12-15T19:00:44.076363+00:00", "meta": {"OBJECT_NAME": "STARLINK-35796", "OBJECT_ID": "2025-265AB", "EPOCH": "2025-12-14T20:00:06.000192", "MEAN_MOTION": 15.40678513, "ECCENTRICITY": 0.0001315, "INCLINATION": 43.0005, "RA_OF_ASC_NODE": 41.747, "ARG_OF_PERICENTER": 295.0038, "MEAN_ANOMALY": 33.6054, "EPHEMERIS_TYPE": 0, "CLASSIFICATION_TYPE": "U", "NORAD_CAT_ID": 66541, "ELEMENT_SET_NO": 999, "REV_AT_EPOCH": 533, "BSTAR": 6.6251225e-05, "MEAN_MOTION_DOT": 2.463e-05, "MEAN_MOTION_DDOT": 0}, "tle": {"line1": "1 66541U 25265AB  25348.83340278  .00002463  00000+0  66251-4 0  9997", "line2": "2 66541  43.0005  41.7470 0001315 295.0038  33.6054 15.40678513  5338"}}, "geometry": {"type": "Point", "coordinates": [-76.79146318912287, -40.62011099204066]}}, {"type": "Feature", "properties": {"norad_id": 66542, "name": "STARLINK-35833", "group": "last-30-days", "lat": -35.700830052665246, "lon": -14.350594720564265, "alt_km": 439.49024207111415, "timestamp": "2025-12-15T19:00:44.076374+00:00", "meta": {"OBJECT_NAME": "STARLINK-35833", "OBJECT_ID": "2025-265AC", "EPOCH": "2025-12-14T20:00:06.000192", "MEAN_MOTION": 15.47034293, "ECCENTRICITY": 0.00016269, "INCLINATION": 43.0008, "RA_OF_ASC_NODE": 41.6649, "ARG_OF_PERICENTER": 267.9816, "MEAN_ANOMALY": 94.5042, "EPHEMERIS_TYPE": 0, "CLASSIFICATION_TYPE": "U", "NORAD_CAT_ID": 66542, "ELEMENT_SET_NO": 999, "REV_AT_EPOCH": 533, "BSTAR": -0.045376433, "MEAN_MOTION_DOT": -0.02086295, "MEAN_MOTION_DDOT": 0}, "tle": {"line1": "1 66542U 25265AC  25348.83340278 -.02086295  00000+0 -45376-1 0  9999", "line2": "2 66542  43.0008  41.6649 0001626 267.9816  94.5042 15.47034293  5337"}}, "geometry": {"type": "Point", "coordinates": [-14.350594720564265, -35.700830052665246]}}, {"type": "Feature", "properties": {"norad_id": 66543, "name": "STARLINK-35315", "group": "last-30-days", "lat": -20.811661779976376, "lon": 11.962165654671486, "alt_km": 415.904832426344, "timestamp": "2025-12-15T19:00:44.076384+00:00", "meta": {"OBJECT_NAME": "STARLINK-35315", "OBJECT_ID": "2025-265AD", "EPOCH": "2025-12-14T10:41:07.308672", "MEAN_MOTION": 15.50621902, "ECCENTRICITY": 0.00010173, "INCLINATION": 42.9999, "RA_OF_ASC_NODE": 43.9174, "ARG_OF_PERICENTER": 261.4925, "MEAN_ANOMALY": 98.582, "EPHEMERIS_TYPE": 0, "CLASSIFICATION_TYPE": "U", "NORAD_CAT_ID": 66543, "ELEMENT_SET_NO": 999, "REV_AT_EPOCH": 402, "BSTAR": 0.0014377021, "MEAN_MOTION_DOT": 0.00085052, "MEAN_MOTION_DDOT": 0}, "tle": {"line1": "1 66543U 25265AD  25348.44522348  .00085052  00000+0  14377-2 0  9991", "line2": "2 66543  42.9999  43.9174 0001017 261.4925  98.5820 15.50621902  4023"}}, "geometry": {"type": "Point", "coordinates": [11.962165654671486, -20.811661779976376]}}, {"type": "Feature", "properties": {"norad_id": 66544, "name": "STARLINK-35728", "group": "last-30-days", "lat": -19.690676624456813, "lon": 13.446329441688672, "alt_km": 415.5472893497681, "timestamp": "2025-12-15T19:00:44.076396+00:00", "meta": {"OBJECT_NAME": "STARLINK-35728", "OBJECT_ID": "2025-265AE", "EPOCH": "2025-12-14T10:40:37.826400", "MEAN_MOTION": 15.50605053, "ECCENTRICITY": 0.00019041, "INCLINATION": 43.0005, "RA_OF_ASC_NODE": 43.9142, "ARG_OF_PERICENTER": 264.977, "MEAN_ANOMALY": 95.0873, "EPHEMERIS_TYPE": 0, "CLASSIFICATION_TYPE": "U", "NORAD_CAT_ID": 66544, "ELEMENT_SET_NO": 999, "REV_AT_EPOCH": 402, "BSTAR": 0.001358556, "MEAN_MOTION_DOT": 0.00080256, "MEAN_MOTION_DDOT": 0}, "tle": {"line1": "1 66544U 25265AE  25348.44488225  .00080256  00000+0  13586-2 0  9999", "line2": "2 66544  43.0005  43.9142 0001904 264.9770  95.0873 15.50605053  4029"}}, "geometry": {"type": "Point", "coordinates": [13.446329441688672, -19.690676624456813]}}, {"type": "Feature", "properties": {"norad_id": 66545, "name": "SHIJIAN-30A", "group": "last-30-days", "lat": 7.93632057875735, "lon": -35.13588499232892, "alt_km": 510.17135508139654, "timestamp": "2025-12-15T19:00:44.076407+00:00", "meta": {"OBJECT_NAME": "SHIJIAN-30A", "OBJECT_ID": "2025-266A", "EPOCH": "2025-12-14T22:23:37.433760", "MEAN_MOTION": 15.15503547, "ECCENTRICITY": 0.00129043, "INCLINATION": 51.7981, "RA_OF_ASC_NODE": 322.5871, "ARG_OF_PERICENTER": 4.3743, "MEAN_ANOMALY": 355.7344, "EPHEMERIS_TYPE": 0, "CLASSIFICATION_TYPE": "U", "NORAD_CAT_ID": 66545, "ELEMENT_SET_NO": 999, "REV_AT_EPOCH": 391, "BSTAR": 0.00046148062, "MEAN_MOTION_DOT": 8.565e-05, "MEAN_MOTION_DDOT": 0}, "tle": {"line1": "1 66545U 25266A   25348.93307215  .00008565  00000+0  46148-3 0  9998", "line2": "2 66545  51.7981 322.5871 0012904   4.3743 355.7344 15.15503547  3914"}}, "geometry": {"type": "Point", "coordinates": [-35.13588499232892, 7.93632057875735]}}, {"type": "Feature", "properties": {"norad_id": 66546, "name": "SHIJIAN-30B", "group": "last-30-days", "lat": 2.812952409859447, "lon": -39.21182681335338, "alt_km": 512.5689510067923, "timestamp": "2025-12-15T19:00:44.076420+00:00", "meta": {"OBJECT_NAME": "SHIJIAN-30B", "OBJECT_ID": "2025-266B", "EPOCH": "2025-12-14T22:25:19.387488", "MEAN_MOTION": 15.15476675, "ECCENTRICITY": 0.00106407, "INCLINATION": 51.7965, "RA_OF_ASC_NODE": 322.5909, "ARG_OF_PERICENTER": 7.7095, "MEAN_ANOMALY": 352.4043, "EPHEMERIS_TYPE": 0, "CLASSIFICATION_TYPE": "U", "NORAD_CAT_ID": 66546, "ELEMENT_SET_NO": 999, "REV_AT_EPOCH": 391, "BSTAR": 0.00052995619, "MEAN_MOTION_DOT": 9.872e-05, "MEAN_MOTION_DDOT": 0}, "tle": {"line1": "1 66546U 25266B   25348.93425217  .00009872  00000+0  52996-3 0  9992", "line2": "2 66546  51.7965 322.5909 0010640   7.7095 352.4043 15.15476675  3912"}}, "geometry": {"type": "Point", "coordinates": [-39.21182681335338, 2.812952409859447]}}]}